[Satellite]
VERSION=1.1
NAME=LITUANICASAT-2
NICKNAME=LITUANICASAT-2
TLE1=1 42768U 17036D   22342.35535881  .00071311  00000+0  13505-2 0  9993
TLE2=2 42768  97.1811  24.9619 0008879  44.8883 315.3085 15.48076058304022
STATUS=0
